{
  "type": "FeatureCollection",
  "features": [
    {
      "type": "Feature",
      "properties": {
        "norad_id": 19071,
        "name": "OSCAR 32",
        "group": "nnss",
        "lat": -58.64520859637681,
        "lon": -163.87135646819988,
        "alt_km": 1143.1150360169222,
        "timestamp": "2025-12-16T23:36:36.465144+00:00",
        "meta_object_name": "OSCAR 32",
        "meta_object_id": "1988-033B",
        "meta_epoch": "2025-12-16T02:50:42.736416",
        "meta_mean_motion": 13.27954419,
        "meta_eccentricity": 0.01886267,
        "meta_inclination": 90.3215,
        "meta_ra_of_asc_node": 16.6296,
        "meta_arg_of_pericenter": 157.4196,
        "meta_mean_anomaly": 265.1952,
        "meta_ephemeris_type": 0,
        "meta_classification_type": "U",
        "meta_norad_cat_id": 19071,
        "meta_element_set_no": 999,
        "meta_rev_at_epoch": 82310,
        "meta_bstar": 0.00012776614,
        "meta_mean_motion_dot": 7.3e-07,
        "meta_mean_motion_ddot": 0,
        "tle_line1": "1 19071U 88033B   25350.11855019  .00000073  00000+0  12777-3 0  9991",
        "tle_line2": "2 19071  90.3215  16.6296 0188626 157.4196 265.1952 13.27954419823103"
      },
      "geometry": {
        "type": "Point",
        "coordinates": [
          -163.87135646819988,
          -58.64520859637681
        ]
      }
    },
    {
      "type": "Feature",
      "properties": {
        "norad_id": 19223,
        "name": "NOVA 2",
        "group": "nnss",
        "lat": -3.055616032551509,
        "lon": 78.26659622173126,
        "alt_km": 1154.192102123713,
        "timestamp": "2025-12-16T23:36:36.465154+00:00",
        "meta_object_name": "NOVA 2",
        "meta_object_id": "1988-052A",
        "meta_epoch": "2025-12-16T07:37:03.645120",
        "meta_mean_motion": 13.22936286,
        "meta_eccentricity": 0.00302822,
        "meta_inclination": 89.9872,
        "meta_ra_of_asc_node": 78.2681,
        "meta_arg_of_pericenter": 7.1387,
        "meta_mean_anomaly": 58.2578,
        "meta_ephemeris_type": 0,
        "meta_classification_type": "U",
        "meta_norad_cat_id": 19223,
        "meta_element_set_no": 999,
        "meta_rev_at_epoch": 80995,
        "meta_bstar": 8.2161284e-05,
        "meta_mean_motion_dot": 4.3e-07,
        "meta_mean_motion_ddot": 0,
        "tle_line1": "1 19223U 88052A   25350.31740330  .00000043  00000+0  82161-4 0  9994",
        "tle_line2": "2 19223  89.9872  78.2681 0030282   7.1387  58.2578 13.22936286809953"
      },
      "geometry": {
        "type": "Point",
        "coordinates": [
          78.26659622173126,
          -3.055616032551509
        ]
      }
    },
    {
      "type": "Feature",
      "properties": {
        "norad_id": 19419,
        "name": "OSCAR 25",
        "group": "nnss",
        "lat": 14.26508791460658,
        "lon": 20.249466002863937,
        "alt_km": 1155.0036382426506,
        "timestamp": "2025-12-16T23:36:36.465165+00:00",
        "meta_object_name": "OSCAR 25",
        "meta_object_id": "1988-074A",
        "meta_epoch": "2025-12-16T02:20:40.513632",
        "meta_mean_motion": 13.42623943,
        "meta_eccentricity": 0.00946024,
        "meta_inclination": 90.0345,
        "meta_ra_of_asc_node": 20.2552,
        "meta_arg_of_pericenter": 236.0986,
        "meta_mean_anomaly": 177.3705,
        "meta_ephemeris_type": 0,
        "meta_classification_type": "U",
        "meta_norad_cat_id": 19419,
        "meta_element_set_no": 999,
        "meta_rev_at_epoch": 82685,
        "meta_bstar": 0.00018077876,
        "meta_mean_motion_dot": 1.14e-06,
        "meta_mean_motion_ddot": 0,
        "tle_line1": "1 19419U 88074A   25350.09769113  .00000114  00000+0  18078-3 0  9994",
        "tle_line2": "2 19419  90.0345  20.2552 0094602 236.0986 177.3705 13.42623943826854"
      },
      "geometry": {
        "type": "Point",
        "coordinates": [
          20.249466002863937,
          14.26508791460658
        ]
      }
    },
    {
      "type": "Feature",
      "properties": {
        "norad_id": 19420,
        "name": "OSCAR 31",
        "group": "nnss",
        "lat": -77.41500857307022,
        "lon": -159.55280604312526,
        "alt_km": 1046.5631871945425,
        "timestamp": "2025-12-16T23:36:36.465175+00:00",
        "meta_object_name": "OSCAR 31",
        "meta_object_id": "1988-074B",
        "meta_epoch": "2025-12-16T02:57:50.948640",
        "meta_mean_motion": 13.42585105,
        "meta_eccentricity": 0.00929415,
        "meta_inclination": 90.0361,
        "meta_ra_of_asc_node": 20.6059,
        "meta_arg_of_pericenter": 230.1584,
        "meta_mean_anomaly": 191.3128,
        "meta_ephemeris_type": 0,
        "meta_classification_type": "U",
        "meta_norad_cat_id": 19420,
        "meta_element_set_no": 999,
        "meta_rev_at_epoch": 82696,
        "meta_bstar": 0.00014421096,
        "meta_mean_motion_dot": 9.2e-07,
        "meta_mean_motion_ddot": 0,
        "tle_line1": "1 19420U 88074B   25350.12350635  .00000092  00000+0  14421-3 0  9998",
        "tle_line2": "2 19420  90.0361  20.6059 0092941 230.1584 191.3128 13.42585105826967"
      },
      "geometry": {
        "type": "Point",
        "coordinates": [
          -159.55280604312526,
          -77.41500857307022
        ]
      }
    }
  ]
}